[
  {
    "name": "PLEIADES NEO 3",
    "line1": "1 48268U 21034A   25342.54146225  .00000160  00000+0  26887-4 0  9994",
    "line2": "2 48268  97.8951  55.0427 0001257  97.3480 262.7876 14.81671885249426",
    "catNr": 48268
  },
  {
    "name": "PLEIADES NEO 4",
    "line1": "1 49070U 21073E   25342.84534576  .00000630  00000+0  86617-4 0  9991",
    "line2": "2 49070  97.8951  55.3382 0001327  95.8767 264.2597 14.81674316233185",
    "catNr": 49070
  }
]